[{"OBJECT_NAME":"DUPLEX","OBJECT_ID":"1998-067XS","EPOCH":"2026-04-12T17:22:28.546464","MEAN_MOTION":15.58507595,"ECCENTRICITY":0.00037538,"INCLINATION":51.6279,"RA_OF_ASC_NODE":258.9272,"ARG_OF_PERICENTER":281.181,"MEAN_ANOMALY":78.876,"EPHEMERIS_TYPE":0,"CLASSIFICATION_TYPE":"U","NORAD_CAT_ID":66906,"ELEMENT_SET_NO":999,"REV_AT_EPOCH":2043,"BSTAR":0.00032308498,"MEAN_MOTION_DOT":0.00024739,"MEAN_MOTION_DDOT":0},{"OBJECT_NAME":"ISS OBJECT XT","OBJECT_ID":"1998-067XT","EPOCH":"2026-04-12T19:41:44.955744","MEAN_MOTION":15.8514595,"ECCENTRICITY":0.00095467,"INCLINATION":51.6194,"RA_OF_ASC_NODE":249.7505,"ARG_OF_PERICENTER":300.3872,"MEAN_ANOMALY":59.6188,"EPHEMERIS_TYPE":0,"CLASSIFICATION_TYPE":"U","NORAD_CAT_ID":66907,"ELEMENT_SET_NO":999,"REV_AT_EPOCH":2056,"BSTAR":0.0010605992,"MEAN_MOTION_DOT":0.00264374,"MEAN_MOTION_DDOT":0},{"OBJECT_NAME":"ISS OBJECT XU","OBJECT_ID":"1998-067XU","EPOCH":"2026-04-13T03:05:03.322752","MEAN_MOTION":15.85762942,"ECCENTRICITY":0.00095375,"INCLINATION":51.6196,"RA_OF_ASC_NODE":248.0505,"ARG_OF_PERICENTER":300.6453,"MEAN_ANOMALY":59.361,"EPHEMERIS_TYPE":0,"CLASSIFICATION_TYPE":"U","NORAD_CAT_ID":66908,"ELEMENT_SET_NO":999,"REV_AT_EPOCH":2061,"BSTAR":0.0010822572,"MEAN_MOTION_DOT":0.00278404,"MEAN_MOTION_DDOT":0},{"OBJECT_NAME":"SILVERSAT","OBJECT_ID":"1998-067XV","EPOCH":"2026-04-11T10:36:27.151488","MEAN_MOTION":15.95566356,"ECCENTRICITY":0.00119176,"INCLINATION":51.6155,"RA_OF_ASC_NODE":254.7584,"ARG_OF_PERICENTER":300.1845,"MEAN_ANOMALY":59.7981,"EPHEMERIS_TYPE":0,"CLASSIFICATION_TYPE":"U","NORAD_CAT_ID":66909,"ELEMENT_SET_NO":999,"REV_AT_EPOCH":2037,"BSTAR":0.0014302467,"MEAN_MOTION_DOT":0.00588813,"MEAN_MOTION_DDOT":0.00015492762},{"OBJECT_NAME":"ISS OBJECT XW","OBJECT_ID":"1998-067XW","EPOCH":"2026-04-13T02:25:04.853568","MEAN_MOTION":15.82286494,"ECCENTRICITY":0.00094781,"INCLINATION":51.619,"RA_OF_ASC_NODE":248.6136,"ARG_OF_PERICENTER":296.4458,"MEAN_ANOMALY":63.5572,"EPHEMERIS_TYPE":0,"CLASSIFICATION_TYPE":"U","NORAD_CAT_ID":66910,"ELEMENT_SET_NO":999,"REV_AT_EPOCH":2060,"BSTAR":0.0009369405,"MEAN_MOTION_DOT":0.00202338,"MEAN_MOTION_DDOT":0},{"OBJECT_NAME":"ISS OBJECT XY","OBJECT_ID":"1998-067XY","EPOCH":"2026-04-13T03:19:10.587072","MEAN_MOTION":15.7148891,"ECCENTRICITY":0.00061484,"INCLINATION":51.6242,"RA_OF_ASC_NODE":251.9188,"ARG_OF_PERICENTER":293.5031,"MEAN_ANOMALY":66.532,"EPHEMERIS_TYPE":0,"CLASSIFICATION_TYPE":"U","NORAD_CAT_ID":66912,"ELEMENT_SET_NO":999,"REV_AT_EPOCH":2055,"BSTAR":0.0006608708,"MEAN_MOTION_DOT":0.00086762,"MEAN_MOTION_DDOT":0},{"OBJECT_NAME":"KNACKSAT-2","OBJECT_ID":"1998-067XZ","EPOCH":"2026-04-12T19:49:31.994400","MEAN_MOTION":15.54776165,"ECCENTRICITY":0.00112191,"INCLINATION":51.6302,"RA_OF_ASC_NODE":261.8605,"ARG_OF_PERICENTER":314.2598,"MEAN_ANOMALY":45.7471,"EPHEMERIS_TYPE":0,"CLASSIFICATION_TYPE":"U","NORAD_CAT_ID":67683,"ELEMENT_SET_NO":999,"REV_AT_EPOCH":1009,"BSTAR":0.00041187115,"MEAN_MOTION_DOT":0.00027598,"MEAN_MOTION_DDOT":0},{"OBJECT_NAME":"CORAL","OBJECT_ID":"1998-067YA","EPOCH":"2026-04-13T03:47:44.720736","MEAN_MOTION":15.60651131,"ECCENTRICITY":0.00148257,"INCLINATION":51.6279,"RA_OF_ASC_NODE":258.8264,"ARG_OF_PERICENTER":307.523,"MEAN_ANOMALY":52.4415,"EPHEMERIS_TYPE":0,"CLASSIFICATION_TYPE":"U","NORAD_CAT_ID":67684,"ELEMENT_SET_NO":999,"REV_AT_EPOCH":1016,"BSTAR":0.00073710439,"MEAN_MOTION_DOT":0.00062567,"MEAN_MOTION_DDOT":0},{"OBJECT_NAME":"GXIBA-1","OBJECT_ID":"1998-067YB","EPOCH":"2026-04-12T19:26:19.698144","MEAN_MOTION":15.55488952,"ECCENTRICITY":0.0013149,"INCLINATION":51.6293,"RA_OF_ASC_NODE":261.7532,"ARG_OF_PERICENTER":311.1274,"MEAN_ANOMALY":48.8581,"EPHEMERIS_TYPE":0,"CLASSIFICATION_TYPE":"U","NORAD_CAT_ID":67685,"ELEMENT_SET_NO":999,"REV_AT_EPOCH":1009,"BSTAR":0.00046623276,"MEAN_MOTION_DOT":0.00032197,"MEAN_MOTION_DDOT":0},{"OBJECT_NAME":"UITMSAT-2","OBJECT_ID":"1998-067YC","EPOCH":"2026-04-12T17:16:50.884032","MEAN_MOTION":15.56822259,"ECCENTRICITY":0.00101566,"INCLINATION":51.629,"RA_OF_ASC_NODE":261.9051,"ARG_OF_PERICENTER":288.1908,"MEAN_ANOMALY":71.7978,"EPHEMERIS_TYPE":0,"CLASSIFICATION_TYPE":"U","NORAD_CAT_ID":67686,"ELEMENT_SET_NO":999,"REV_AT_EPOCH":1008,"BSTAR":0.00058188941,"MEAN_MOTION_DOT":0.00042359,"MEAN_MOTION_DDOT":0},{"OBJECT_NAME":"HMU-SAT2","OBJECT_ID":"1998-067YD","EPOCH":"2026-04-13T03:19:56.748000","MEAN_MOTION":15.55199861,"ECCENTRICITY":0.00097185,"INCLINATION":51.6304,"RA_OF_ASC_NODE":260.2029,"ARG_OF_PERICENTER":291.9851,"MEAN_ANOMALY":68.0107,"EPHEMERIS_TYPE":0,"CLASSIFICATION_TYPE":"U","NORAD_CAT_ID":67687,"ELEMENT_SET_NO":999,"REV_AT_EPOCH":1006,"BSTAR":0.00040379953,"MEAN_MOTION_DOT":0.00027459,"MEAN_MOTION_DDOT":0},{"OBJECT_NAME":"LEOPARD","OBJECT_ID":"1998-067YE","EPOCH":"2026-04-12T17:33:42.474240","MEAN_MOTION":15.56211293,"ECCENTRICITY":0.00097529,"INCLINATION":51.6291,"RA_OF_ASC_NODE":261.9837,"ARG_OF_PERICENTER":288.6186,"MEAN_ANOMALY":71.3747,"EPHEMERIS_TYPE":0,"CLASSIFICATION_TYPE":"U","NORAD_CAT_ID":67688,"ELEMENT_SET_NO":999,"REV_AT_EPOCH":1000,"BSTAR":0.00053345486,"MEAN_MOTION_DOT":0.00037885,"MEAN_MOTION_DDOT":0},{"OBJECT_NAME":"CREW DRAGON 12","OBJECT_ID":"2026-031A","EPOCH":"2026-04-13T04:00:18.565920","MEAN_MOTION":15.48891757,"ECCENTRICITY":0.00064626,"INCLINATION":51.6321,"RA_OF_ASC_NODE":261.8843,"ARG_OF_PERICENTER":306.5385,"MEAN_ANOMALY":53.5008,"EPHEMERIS_TYPE":0,"CLASSIFICATION_TYPE":"U","NORAD_CAT_ID":67796,"ELEMENT_SET_NO":999,"REV_AT_EPOCH":56170,"BSTAR":9.6800567e-5,"MEAN_MOTION_DOT":4.867e-5,"MEAN_MOTION_DDOT":0},{"OBJECT_NAME":"PROGRESS-MS 33","OBJECT_ID":"2026-058A","EPOCH":"2026-04-13T04:00:18.565920","MEAN_MOTION":15.48891757,"ECCENTRICITY":0.00064626,"INCLINATION":51.6321,"RA_OF_ASC_NODE":261.8843,"ARG_OF_PERICENTER":306.5385,"MEAN_ANOMALY":53.5008,"EPHEMERIS_TYPE":0,"CLASSIFICATION_TYPE":"U","NORAD_CAT_ID":68319,"ELEMENT_SET_NO":999,"REV_AT_EPOCH":316,"BSTAR":9.6800567e-5,"MEAN_MOTION_DOT":4.867e-5,"MEAN_MOTION_DDOT":0},{"OBJECT_NAME":"CYGNUS NG-24","OBJECT_ID":"2026-079A","EPOCH":"2026-04-12T20:23:52.613664","MEAN_MOTION":16.10537511,"ECCENTRICITY":0.0006629,"INCLINATION":51.6616,"RA_OF_ASC_NODE":263.488,"ARG_OF_PERICENTER":293.1346,"MEAN_ANOMALY":66.897,"EPHEMERIS_TYPE":0,"CLASSIFICATION_TYPE":"U","NORAD_CAT_ID":68689,"ELEMENT_SET_NO":999,"REV_AT_EPOCH":22,"BSTAR":0.00022099148,"MEAN_MOTION_DOT":0.00220277,"MEAN_MOTION_DDOT":3.506835e-5}]
